{
  "type": "FeatureCollection",
  "features": [
    {
      "type": "Feature",
      "properties": {
        "norad_id": 34141,
        "name": "COSMOS 2251 DEB",
        "group": "cosmos-2251-debris",
        "lat": -21.196217520878875,
        "lon": -171.42695997914106,
        "alt_km": 748.2803809516336,
        "timestamp": "2025-12-26T22:28:06.179304+00:00",
        "meta_object_name": "COSMOS 2251 DEB",
        "meta_object_id": "1993-036LN",
        "meta_epoch": "2025-12-26T10:31:39.408384",
        "meta_mean_motion": 14.49377505,
        "meta_eccentricity": 0.0046506,
        "meta_inclination": 74.0117,
        "meta_ra_of_asc_node": 3.1237,
        "meta_arg_of_pericenter": 84.4634,
        "meta_mean_anomaly": 42.0983,
        "meta_ephemeris_type": 0,
        "meta_classification_type": "U",
        "meta_norad_cat_id": 34141,
        "meta_element_set_no": 999,
        "meta_rev_at_epoch": 87892,
        "meta_bstar": 0.0014499,
        "meta_mean_motion_dot": 5.595e-05,
        "meta_mean_motion_ddot": 0,
        "tle_line1": "1 34141U 93036LN  25360.43865056  .00005595  00000+0  14499-2 0  9999",
        "tle_line2": "2 34141  74.0117   3.1237 0046506  84.4634  42.0983 14.49377505878926"
      },
      "geometry": {
        "type": "Point",
        "coordinates": [
          -171.42695997914106,
          -21.196217520878875
        ]
      }
    },
    {
      "type": "Feature",
      "properties": {
        "norad_id": 34270,
        "name": "COSMOS 2251 DEB",
        "group": "cosmos-2251-debris",
        "lat": -64.85070794153035,
        "lon": 136.9128919662339,
        "alt_km": 716.9481738033501,
        "timestamp": "2025-12-26T22:28:06.179314+00:00",
        "meta_object_name": "COSMOS 2251 DEB",
        "meta_object_id": "1993-036LQ",
        "meta_epoch": "2025-12-26T18:03:16.787232",
        "meta_mean_motion": 14.6526436,
        "meta_eccentricity": 0.0048036,
        "meta_inclination": 74.0105,
        "meta_ra_of_asc_node": 279.6234,
        "meta_arg_of_pericenter": 68.1685,
        "meta_mean_anomaly": 292.4583,
        "meta_ephemeris_type": 0,
        "meta_classification_type": "U",
        "meta_norad_cat_id": 34270,
        "meta_element_set_no": 999,
        "meta_rev_at_epoch": 89301,
        "meta_bstar": 0.00049811,
        "meta_mean_motion_dot": 2.7e-05,
        "meta_mean_motion_ddot": 0,
        "tle_line1": "1 34270U 93036LQ  25360.75227763  .00002700  00000+0  49811-3 0  9996",
        "tle_line2": "2 34270  74.0105 279.6234 0048036  68.1685 292.4583 14.65264360893014"
      },
      "geometry": {
        "type": "Point",
        "coordinates": [
          136.9128919662339,
          -64.85070794153035
        ]
      }
    },
    {
      "type": "Feature",
      "properties": {
        "norad_id": 34271,
        "name": "COSMOS 2251 DEB",
        "group": "cosmos-2251-debris",
        "lat": 50.417339932185655,
        "lon": -28.540371878606177,
        "alt_km": 654.3614780217331,
        "timestamp": "2025-12-26T22:28:06.179324+00:00",
        "meta_object_name": "COSMOS 2251 DEB",
        "meta_object_id": "1993-036LR",
        "meta_epoch": "2025-12-25T13:30:46.228320",
        "meta_mean_motion": 14.7104633,
        "meta_eccentricity": 0.0018087,
        "meta_inclination": 74.0201,
        "meta_ra_of_asc_node": 174.4074,
        "meta_arg_of_pericenter": 227.5372,
        "meta_mean_anomaly": 190.3592,
        "meta_ephemeris_type": 0,
        "meta_classification_type": "U",
        "meta_norad_cat_id": 34271,
        "meta_element_set_no": 999,
        "meta_rev_at_epoch": 88423,
        "meta_bstar": 0.0023085,
        "meta_mean_motion_dot": 0.00014213,
        "meta_mean_motion_ddot": 0,
        "tle_line1": "1 34271U 93036LR  25359.56303505  .00014213  00000+0  23085-2 0  9999",
        "tle_line2": "2 34271  74.0201 174.4074 0018087 227.5372 190.3592 14.71046330884235"
      },
      "geometry": {
        "type": "Point",
        "coordinates": [
          -28.540371878606177,
          50.417339932185655
        ]
      }
    },
    {
      "type": "Feature",
      "properties": {
        "norad_id": 34273,
        "name": "COSMOS 2251 DEB",
        "group": "cosmos-2251-debris",
        "lat": 14.215191337767179,
        "lon": 64.44025726220615,
        "alt_km": 698.6943891654773,
        "timestamp": "2025-12-26T22:28:06.179335+00:00",
        "meta_object_name": "COSMOS 2251 DEB",
        "meta_object_id": "1993-036LT",
        "meta_epoch": "2025-12-26T12:50:56.279040",
        "meta_mean_motion": 14.61344007,
        "meta_eccentricity": 0.001327,
        "meta_inclination": 74.0357,
        "meta_ra_of_asc_node": 61.0479,
        "meta_arg_of_pericenter": 186.2896,
        "meta_mean_anomaly": 240.9182,
        "meta_ephemeris_type": 0,
        "meta_classification_type": "U",
        "meta_norad_cat_id": 34273,
        "meta_element_set_no": 999,
        "meta_rev_at_epoch": 88823,
        "meta_bstar": 0.00085763,
        "meta_mean_motion_dot": 4.216e-05,
        "meta_mean_motion_ddot": 0,
        "tle_line1": "1 34273U 93036LT  25360.53537360  .00004216  00000+0  85763-3 0  9992",
        "tle_line2": "2 34273  74.0357  61.0479 0013270 186.2896 240.9182 14.61344007888232"
      },
      "geometry": {
        "type": "Point",
        "coordinates": [
          64.44025726220615,
          14.215191337767179
        ]
      }
    },
    {
      "type": "Feature",
      "properties": {
        "norad_id": 34274,
        "name": "COSMOS 2251 DEB",
        "group": "cosmos-2251-debris",
        "lat": -71.2343852944232,
        "lon": -16.38541591976186,
        "alt_km": 684.2401191722984,
        "timestamp": "2025-12-26T22:28:06.179346+00:00",
        "meta_object_name": "COSMOS 2251 DEB",
        "meta_object_id": "1993-036LU",
        "meta_epoch": "2025-12-26T09:49:41.735712",
        "meta_mean_motion": 14.64932186,
        "meta_eccentricity": 0.0021167,
        "meta_inclination": 74.0039,
        "meta_ra_of_asc_node": 42.2274,
        "meta_arg_of_pericenter": 190.8598,
        "meta_mean_anomaly": 192.4467,
        "meta_ephemeris_type": 0,
        "meta_classification_type": "U",
        "meta_norad_cat_id": 34274,
        "meta_element_set_no": 999,
        "meta_rev_at_epoch": 88876,
        "meta_bstar": 0.0010046,
        "meta_mean_motion_dot": 5.366e-05,
        "meta_mean_motion_ddot": 0,
        "tle_line1": "1 34274U 93036LU  25360.40951083  .00005366  00000+0  10046-2 0  9999",
        "tle_line2": "2 34274  74.0039  42.2274 0021167 190.8598 192.4467 14.64932186888767"
      },
      "geometry": {
        "type": "Point",
        "coordinates": [
          -16.38541591976186,
          -71.2343852944232
        ]
      }
    },
    {
      "type": "Feature",
      "properties": {
        "norad_id": 34276,
        "name": "COSMOS 2251 DEB",
        "group": "cosmos-2251-debris",
        "lat": -9.470595103768229,
        "lon": -118.93210211655747,
        "alt_km": 690.5011764183328,
        "timestamp": "2025-12-26T22:28:06.179356+00:00",
        "meta_object_name": "COSMOS 2251 DEB",
        "meta_object_id": "1993-036LW",
        "meta_epoch": "2025-12-26T13:57:01.187136",
        "meta_mean_motion": 14.57315229,
        "meta_eccentricity": 0.0022015,
        "meta_inclination": 74.0234,
        "meta_ra_of_asc_node": 59.0032,
        "meta_arg_of_pericenter": 204.4532,
        "meta_mean_anomaly": 284.0843,
        "meta_ephemeris_type": 0,
        "meta_classification_type": "U",
        "meta_norad_cat_id": 34276,
        "meta_element_set_no": 999,
        "meta_rev_at_epoch": 88794,
        "meta_bstar": 0.00069567,
        "meta_mean_motion_dot": 3.131e-05,
        "meta_mean_motion_ddot": 0,
        "tle_line1": "1 34276U 93036LW  25360.58126374  .00003131  00000+0  69567-3 0  9998",
        "tle_line2": "2 34276  74.0234  59.0032 0022015 204.4532 284.0843 14.57315229887947"
      },
      "geometry": {
        "type": "Point",
        "coordinates": [
          -118.93210211655747,
          -9.470595103768229
        ]
      }
    },
    {
      "type": "Feature",
      "properties": {
        "norad_id": 34297,
        "name": "COSMOS 2251 DEB",
        "group": "cosmos-2251-debris",
        "lat": -45.62004782880458,
        "lon": 95.15918296636869,
        "alt_km": 777.3843336570553,
        "timestamp": "2025-12-26T22:28:06.179367+00:00",
        "meta_object_name": "COSMOS 2251 DEB",
        "meta_object_id": "1993-036MT",
        "meta_epoch": "2025-12-26T10:15:55.052928",
        "meta_mean_motion": 14.36640578,
        "meta_eccentricity": 0.0017793,
        "meta_inclination": 74.0483,
        "meta_ra_of_asc_node": 259.0982,
        "meta_arg_of_pericenter": 325.3074,
        "meta_mean_anomaly": 154.1728,
        "meta_ephemeris_type": 0,
        "meta_classification_type": "U",
        "meta_norad_cat_id": 34297,
        "meta_element_set_no": 999,
        "meta_rev_at_epoch": 88261,
        "meta_bstar": 0.00013276,
        "meta_mean_motion_dot": 3.65e-06,
        "meta_mean_motion_ddot": 0,
        "tle_line1": "1 34297U 93036MT  25360.42772052  .00000365  00000+0  13276-3 0  9996",
        "tle_line2": "2 34297  74.0483 259.0982 0017793 325.3074 154.1728 14.36640578882616"
      },
      "geometry": {
        "type": "Point",
        "coordinates": [
          95.15918296636869,
          -45.62004782880458
        ]
      }
    }
  ]
}